ONEWEB-0350             
1 49214U 21083AE  26078.23112894  .00000159  00000+0  40164-3 0  9999
2 49214  87.9029 338.1193 0001883  68.8140 291.3190 13.13471901219122
ONEWEB-0351             
1 49215U 21083AF  26078.10861378  .00000029  00000+0  40184-4 0  9993
2 49215  87.9159 292.4249 0002552  91.5353 268.6072 13.20771495224888
ONEWEB-0352             
1 49216U 21083AG  26078.28783800 -.00000215  00000+0 -62474-3 0  9990
2 49216  87.9021 338.1237 0002155  83.5536 276.5838 13.13472215219225
ONEWEB-0354             
1 49217U 21083AH  26078.28550809  .00000059  00000+0  11278-3 0  9992
2 49217  87.9155 292.3888 0001677  77.2777 282.8544 13.20771308224944
ONEWEB-0355             
1 49218U 21083AJ  26078.24058524  .00000410  00000+0  10882-2 0  9996
2 49218  87.9015 338.1430 0001967  76.5611 283.5737 13.13470318219094
ONEWEB-0357             
1 49219U 21083AK  26078.13083815  .00000022  00000+0  22202-4 0  9996
2 49219  87.9158 292.4143 0001838  87.9286 272.2057 13.20771204224921
ONEWEB-0332             
1 49279U 21090A   26078.17129348  .00000235  00000+0  60039-3 0  9991
2 49279  87.8971 307.6743 0001725  90.3244 269.8084 13.14503288215752
ONEWEB-0347             
1 49280U 21090B   26078.12137391 -.00000001  00000+0 -33250-4 0  9994
2 49280  87.9158 292.4252 0001629  97.1906 262.9413 13.20771038219156
ONEWEB-0349             
1 49281U 21090C   26078.15294118  .00000029  00000+0  40343-4 0  9998
2 49281  87.9161 292.4186 0001711  86.9351 273.1979 13.20770730217943
ONEWEB-0353             
1 49282U 21090D   26078.16336206  .00000331  00000+0  85918-3 0  9997
2 49282  87.8971 307.6702 0001702  92.7444 267.3880 13.14503482215757
ONEWEB-0356             
1 49283U 21090E   26078.30286965  .00000128  00000+0  28230-3 0  9998
2 49283  87.9159 292.3820 0000895 105.9670 254.1562 13.20771246217966
ONEWEB-0358             
1 49284U 21090F   26078.10559482  .00000045  00000+0  79931-4 0  9997
2 49284  87.9161 292.4245 0001581  85.1504 274.9810 13.20770812218662
ONEWEB-0359             
1 49285U 21090G   26078.10243586  .00000079  00000+0  16149-3 0  9991
2 49285  87.9159 292.4223 0001618  77.1701 282.9613 13.20771898218640
ONEWEB-0360             
1 49286U 21090H   26078.09296080  .00000128  00000+0  28213-3 0  9997
2 49286  87.9159 292.4302 0001722  82.1873 277.9455 13.20770634217959
ONEWEB-0361             
1 49287U 21090J   26078.30129221  .00000127  00000+0  28024-3 0  9993
2 49287  87.9158 292.3864 0001472  87.5659 272.5643 13.20770947218435
ONEWEB-0362             
1 49288U 21090K   26078.18269674  .00000062  00000+0  12165-3 0  9994
2 49288  87.9218 322.9173 0001989  79.2639 280.8718 13.19725516215044
ONEWEB-0363             
1 49289U 21090L   26078.08981036  .00000216  00000+0  50025-3 0  9995
2 49289  87.9158 292.4299 0001305  86.7704 273.3579 13.20770943218418
