[{"OBJECT_NAME":"ONEWEB-0350","OBJECT_ID":"2021-083AE","EPOCH":"2026-03-19T05:32:49.540416","MEAN_MOTION":13.13471901,"ECCENTRICITY":0.00018834,"INCLINATION":87.9029,"RA_OF_ASC_NODE":338.1193,"ARG_OF_PERICENTER":68.814,"MEAN_ANOMALY":291.319,"EPHEMERIS_TYPE":0,"CLASSIFICATION_TYPE":"U","NORAD_CAT_ID":49214,"ELEMENT_SET_NO":999,"REV_AT_EPOCH":21912,"BSTAR":0.00040164263,"MEAN_MOTION_DOT":1.59e-6,"MEAN_MOTION_DDOT":0},{"OBJECT_NAME":"ONEWEB-0351","OBJECT_ID":"2021-083AF","EPOCH":"2026-03-19T02:36:24.230592","MEAN_MOTION":13.20771495,"ECCENTRICITY":0.00025522,"INCLINATION":87.9159,"RA_OF_ASC_NODE":292.4249,"ARG_OF_PERICENTER":91.5353,"MEAN_ANOMALY":268.6072,"EPHEMERIS_TYPE":0,"CLASSIFICATION_TYPE":"U","NORAD_CAT_ID":49215,"ELEMENT_SET_NO":999,"REV_AT_EPOCH":22488,"BSTAR":4.0183521e-5,"MEAN_MOTION_DOT":2.9e-7,"MEAN_MOTION_DDOT":0},{"OBJECT_NAME":"ONEWEB-0352","OBJECT_ID":"2021-083AG","EPOCH":"2026-03-19T06:54:29.203200","MEAN_MOTION":13.13472215,"ECCENTRICITY":0.00021558,"INCLINATION":87.9021,"RA_OF_ASC_NODE":338.1237,"ARG_OF_PERICENTER":83.5536,"MEAN_ANOMALY":276.5838,"EPHEMERIS_TYPE":0,"CLASSIFICATION_TYPE":"U","NORAD_CAT_ID":49216,"ELEMENT_SET_NO":999,"REV_AT_EPOCH":21922,"BSTAR":-0.00062474231,"MEAN_MOTION_DOT":-2.15e-6,"MEAN_MOTION_DDOT":0},{"OBJECT_NAME":"ONEWEB-0354","OBJECT_ID":"2021-083AH","EPOCH":"2026-03-19T06:51:07.898976","MEAN_MOTION":13.20771308,"ECCENTRICITY":0.00016774,"INCLINATION":87.9155,"RA_OF_ASC_NODE":292.3888,"ARG_OF_PERICENTER":77.2777,"MEAN_ANOMALY":282.8544,"EPHEMERIS_TYPE":0,"CLASSIFICATION_TYPE":"U","NORAD_CAT_ID":49217,"ELEMENT_SET_NO":999,"REV_AT_EPOCH":22494,"BSTAR":0.00011277692,"MEAN_MOTION_DOT":5.9e-7,"MEAN_MOTION_DDOT":0},{"OBJECT_NAME":"ONEWEB-0355","OBJECT_ID":"2021-083AJ","EPOCH":"2026-03-19T05:46:26.564736","MEAN_MOTION":13.13470318,"ECCENTRICITY":0.00019671,"INCLINATION":87.9015,"RA_OF_ASC_NODE":338.143,"ARG_OF_PERICENTER":76.5611,"MEAN_ANOMALY":283.5737,"EPHEMERIS_TYPE":0,"CLASSIFICATION_TYPE":"U","NORAD_CAT_ID":49218,"ELEMENT_SET_NO":999,"REV_AT_EPOCH":21909,"BSTAR":0.0010882046,"MEAN_MOTION_DOT":4.1e-6,"MEAN_MOTION_DDOT":0},{"OBJECT_NAME":"ONEWEB-0357","OBJECT_ID":"2021-083AK","EPOCH":"2026-03-19T03:08:24.416160","MEAN_MOTION":13.20771204,"ECCENTRICITY":0.00018381,"INCLINATION":87.9158,"RA_OF_ASC_NODE":292.4143,"ARG_OF_PERICENTER":87.9286,"MEAN_ANOMALY":272.2057,"EPHEMERIS_TYPE":0,"CLASSIFICATION_TYPE":"U","NORAD_CAT_ID":49219,"ELEMENT_SET_NO":999,"REV_AT_EPOCH":22492,"BSTAR":2.220174e-5,"MEAN_MOTION_DOT":2.2e-7,"MEAN_MOTION_DDOT":0},{"OBJECT_NAME":"ONEWEB-0332","OBJECT_ID":"2021-090A","EPOCH":"2026-03-19T04:06:39.756672","MEAN_MOTION":13.14503288,"ECCENTRICITY":0.00017257,"INCLINATION":87.8971,"RA_OF_ASC_NODE":307.6743,"ARG_OF_PERICENTER":90.3244,"MEAN_ANOMALY":269.8084,"EPHEMERIS_TYPE":0,"CLASSIFICATION_TYPE":"U","NORAD_CAT_ID":49279,"ELEMENT_SET_NO":999,"REV_AT_EPOCH":21575,"BSTAR":0.00060039382,"MEAN_MOTION_DOT":2.35e-6,"MEAN_MOTION_DDOT":0},{"OBJECT_NAME":"ONEWEB-0347","OBJECT_ID":"2021-090B","EPOCH":"2026-03-19T02:54:46.705824","MEAN_MOTION":13.20771038,"ECCENTRICITY":0.00016299,"INCLINATION":87.9158,"RA_OF_ASC_NODE":292.4252,"ARG_OF_PERICENTER":97.1906,"MEAN_ANOMALY":262.9413,"EPHEMERIS_TYPE":0,"CLASSIFICATION_TYPE":"U","NORAD_CAT_ID":49280,"ELEMENT_SET_NO":999,"REV_AT_EPOCH":21915,"BSTAR":-3.32496e-5,"MEAN_MOTION_DOT":-1.0e-8,"MEAN_MOTION_DDOT":0},{"OBJECT_NAME":"ONEWEB-0349","OBJECT_ID":"2021-090C","EPOCH":"2026-03-19T03:40:14.117952","MEAN_MOTION":13.2077073,"ECCENTRICITY":0.00017118,"INCLINATION":87.9161,"RA_OF_ASC_NODE":292.4186,"ARG_OF_PERICENTER":86.9351,"MEAN_ANOMALY":273.1979,"EPHEMERIS_TYPE":0,"CLASSIFICATION_TYPE":"U","NORAD_CAT_ID":49281,"ELEMENT_SET_NO":999,"REV_AT_EPOCH":21794,"BSTAR":4.0342589e-5,"MEAN_MOTION_DOT":2.9e-7,"MEAN_MOTION_DDOT":0},{"OBJECT_NAME":"ONEWEB-0353","OBJECT_ID":"2021-090D","EPOCH":"2026-03-19T03:55:14.481984","MEAN_MOTION":13.14503482,"ECCENTRICITY":0.00017027,"INCLINATION":87.8971,"RA_OF_ASC_NODE":307.6702,"ARG_OF_PERICENTER":92.7444,"MEAN_ANOMALY":267.388,"EPHEMERIS_TYPE":0,"CLASSIFICATION_TYPE":"U","NORAD_CAT_ID":49282,"ELEMENT_SET_NO":999,"REV_AT_EPOCH":21575,"BSTAR":0.00085917882,"MEAN_MOTION_DOT":3.31e-6,"MEAN_MOTION_DDOT":0},{"OBJECT_NAME":"ONEWEB-0356","OBJECT_ID":"2021-090E","EPOCH":"2026-03-19T07:16:07.937760","MEAN_MOTION":13.20771246,"ECCENTRICITY":8.95e-5,"INCLINATION":87.9159,"RA_OF_ASC_NODE":292.382,"ARG_OF_PERICENTER":105.967,"MEAN_ANOMALY":254.1562,"EPHEMERIS_TYPE":0,"CLASSIFICATION_TYPE":"U","NORAD_CAT_ID":49283,"ELEMENT_SET_NO":999,"REV_AT_EPOCH":21796,"BSTAR":0.00028229693,"MEAN_MOTION_DOT":1.28e-6,"MEAN_MOTION_DDOT":0},{"OBJECT_NAME":"ONEWEB-0358","OBJECT_ID":"2021-090F","EPOCH":"2026-03-19T02:32:03.392448","MEAN_MOTION":13.20770812,"ECCENTRICITY":0.00015812,"INCLINATION":87.9161,"RA_OF_ASC_NODE":292.4245,"ARG_OF_PERICENTER":85.1504,"MEAN_ANOMALY":274.981,"EPHEMERIS_TYPE":0,"CLASSIFICATION_TYPE":"U","NORAD_CAT_ID":49284,"ELEMENT_SET_NO":999,"REV_AT_EPOCH":21866,"BSTAR":7.9930684e-5,"MEAN_MOTION_DOT":4.5e-7,"MEAN_MOTION_DDOT":0},{"OBJECT_NAME":"ONEWEB-0359","OBJECT_ID":"2021-090G","EPOCH":"2026-03-19T02:27:30.458304","MEAN_MOTION":13.20771898,"ECCENTRICITY":0.00016185,"INCLINATION":87.9159,"RA_OF_ASC_NODE":292.4223,"ARG_OF_PERICENTER":77.1701,"MEAN_ANOMALY":282.9613,"EPHEMERIS_TYPE":0,"CLASSIFICATION_TYPE":"U","NORAD_CAT_ID":49285,"ELEMENT_SET_NO":999,"REV_AT_EPOCH":21864,"BSTAR":0.00016149211,"MEAN_MOTION_DOT":7.9e-7,"MEAN_MOTION_DDOT":0},{"OBJECT_NAME":"ONEWEB-0360","OBJECT_ID":"2021-090H","EPOCH":"2026-03-19T02:13:51.813120","MEAN_MOTION":13.20770634,"ECCENTRICITY":0.00017221,"INCLINATION":87.9159,"RA_OF_ASC_NODE":292.4302,"ARG_OF_PERICENTER":82.1873,"MEAN_ANOMALY":277.9455,"EPHEMERIS_TYPE":0,"CLASSIFICATION_TYPE":"U","NORAD_CAT_ID":49286,"ELEMENT_SET_NO":999,"REV_AT_EPOCH":21795,"BSTAR":0.00028213155,"MEAN_MOTION_DOT":1.28e-6,"MEAN_MOTION_DDOT":0},{"OBJECT_NAME":"ONEWEB-0361","OBJECT_ID":"2021-090J","EPOCH":"2026-03-19T07:13:51.646944","MEAN_MOTION":13.20770947,"ECCENTRICITY":0.0001472,"INCLINATION":87.9158,"RA_OF_ASC_NODE":292.3864,"ARG_OF_PERICENTER":87.5659,"MEAN_ANOMALY":272.5643,"EPHEMERIS_TYPE":0,"CLASSIFICATION_TYPE":"U","NORAD_CAT_ID":49287,"ELEMENT_SET_NO":999,"REV_AT_EPOCH":21843,"BSTAR":0.00028024028,"MEAN_MOTION_DOT":1.27e-6,"MEAN_MOTION_DDOT":0},{"OBJECT_NAME":"ONEWEB-0362","OBJECT_ID":"2021-090K","EPOCH":"2026-03-19T04:23:04.998336","MEAN_MOTION":13.19725516,"ECCENTRICITY":0.00019892,"INCLINATION":87.9218,"RA_OF_ASC_NODE":322.9173,"ARG_OF_PERICENTER":79.2639,"MEAN_ANOMALY":280.8718,"EPHEMERIS_TYPE":0,"CLASSIFICATION_TYPE":"U","NORAD_CAT_ID":49288,"ELEMENT_SET_NO":999,"REV_AT_EPOCH":21504,"BSTAR":0.00012164737,"MEAN_MOTION_DOT":6.2e-7,"MEAN_MOTION_DDOT":0},{"OBJECT_NAME":"ONEWEB-0363","OBJECT_ID":"2021-090L","EPOCH":"2026-03-19T02:09:19.615104","MEAN_MOTION":13.20770943,"ECCENTRICITY":0.00013059,"INCLINATION":87.9158,"RA_OF_ASC_NODE":292.4299,"ARG_OF_PERICENTER":86.7704,"MEAN_ANOMALY":273.3579,"EPHEMERIS_TYPE":0,"CLASSIFICATION_TYPE":"U","NORAD_CAT_ID":49289,"ELEMENT_SET_NO":999,"REV_AT_EPOCH":21841,"BSTAR":0.00050025382,"MEAN_MOTION_DOT":2.16e-6,"MEAN_MOTION_DDOT":0}]
